[{"OBJECT_NAME":"STARLINK-31041","OBJECT_ID":"2023-192G","EPOCH":"2026-03-17T02:53:07.407168","MEAN_MOTION":15.30193304,"ECCENTRICITY":0.00013485,"INCLINATION":53.1629,"RA_OF_ASC_NODE":28.1822,"ARG_OF_PERICENTER":102.3134,"MEAN_ANOMALY":257.8018,"EPHEMERIS_TYPE":0,"CLASSIFICATION_TYPE":"U","NORAD_CAT_ID":58537,"ELEMENT_SET_NO":999,"REV_AT_EPOCH":12712,"BSTAR":-2.3376751e-5,"MEAN_MOTION_DOT":-1.051e-5,"MEAN_MOTION_DDOT":0},{"OBJECT_NAME":"STARLINK-31014","OBJECT_ID":"2023-192H","EPOCH":"2026-03-17T03:08:19.143168","MEAN_MOTION":15.30200728,"ECCENTRICITY":0.00015409,"INCLINATION":53.1622,"RA_OF_ASC_NODE":28.2478,"ARG_OF_PERICENTER":85.556,"MEAN_ANOMALY":274.5617,"EPHEMERIS_TYPE":0,"CLASSIFICATION_TYPE":"U","NORAD_CAT_ID":58538,"ELEMENT_SET_NO":999,"REV_AT_EPOCH":12712,"BSTAR":0.00021407559,"MEAN_MOTION_DOT":5.986e-5,"MEAN_MOTION_DDOT":0},{"OBJECT_NAME":"STARLINK-31055","OBJECT_ID":"2023-192J","EPOCH":"2026-03-17T03:12:52.438464","MEAN_MOTION":15.30192053,"ECCENTRICITY":0.00013915,"INCLINATION":53.162,"RA_OF_ASC_NODE":28.2677,"ARG_OF_PERICENTER":80.6325,"MEAN_ANOMALY":279.4833,"EPHEMERIS_TYPE":0,"CLASSIFICATION_TYPE":"U","NORAD_CAT_ID":58539,"ELEMENT_SET_NO":999,"REV_AT_EPOCH":12712,"BSTAR":4.0987543e-5,"MEAN_MOTION_DOT":8.55e-6,"MEAN_MOTION_DDOT":0},{"OBJECT_NAME":"STARLINK-31019","OBJECT_ID":"2023-192K","EPOCH":"2026-03-17T02:59:12.002208","MEAN_MOTION":15.30191383,"ECCENTRICITY":0.00014734,"INCLINATION":53.1622,"RA_OF_ASC_NODE":28.206,"ARG_OF_PERICENTER":96.0307,"MEAN_ANOMALY":264.0862,"EPHEMERIS_TYPE":0,"CLASSIFICATION_TYPE":"U","NORAD_CAT_ID":58540,"ELEMENT_SET_NO":999,"REV_AT_EPOCH":12712,"BSTAR":2.9119289e-5,"MEAN_MOTION_DOT":5.03e-6,"MEAN_MOTION_DDOT":0},{"OBJECT_NAME":"STARLINK-31045","OBJECT_ID":"2023-192L","EPOCH":"2026-03-17T07:56:47.720832","MEAN_MOTION":15.30169874,"ECCENTRICITY":5.401e-5,"INCLINATION":53.1592,"RA_OF_ASC_NODE":104.0871,"ARG_OF_PERICENTER":143.8136,"MEAN_ANOMALY":216.2901,"EPHEMERIS_TYPE":0,"CLASSIFICATION_TYPE":"U","NORAD_CAT_ID":58541,"ELEMENT_SET_NO":999,"REV_AT_EPOCH":12606,"BSTAR":0.00016714955,"MEAN_MOTION_DOT":4.59e-5,"MEAN_MOTION_DDOT":0},{"OBJECT_NAME":"STARLINK-31030","OBJECT_ID":"2023-192M","EPOCH":"2026-03-17T03:17:25.995552","MEAN_MOTION":15.30186142,"ECCENTRICITY":0.00014442,"INCLINATION":53.163,"RA_OF_ASC_NODE":28.287,"ARG_OF_PERICENTER":85.6715,"MEAN_ANOMALY":274.4451,"EPHEMERIS_TYPE":0,"CLASSIFICATION_TYPE":"U","NORAD_CAT_ID":58542,"ELEMENT_SET_NO":999,"REV_AT_EPOCH":12712,"BSTAR":0.00011937289,"MEAN_MOTION_DOT":3.176e-5,"MEAN_MOTION_DDOT":0},{"OBJECT_NAME":"STARLINK-31049","OBJECT_ID":"2023-192N","EPOCH":"2026-03-17T03:21:59.847264","MEAN_MOTION":15.30182627,"ECCENTRICITY":0.00011892,"INCLINATION":53.1621,"RA_OF_ASC_NODE":28.306,"ARG_OF_PERICENTER":83.4535,"MEAN_ANOMALY":276.6601,"EPHEMERIS_TYPE":0,"CLASSIFICATION_TYPE":"U","NORAD_CAT_ID":58543,"ELEMENT_SET_NO":999,"REV_AT_EPOCH":12712,"BSTAR":6.8720746e-5,"MEAN_MOTION_DOT":1.676e-5,"MEAN_MOTION_DDOT":0},{"OBJECT_NAME":"STARLINK-31048","OBJECT_ID":"2023-192P","EPOCH":"2026-03-17T02:25:45.693120","MEAN_MOTION":15.30181357,"ECCENTRICITY":9.15e-5,"INCLINATION":53.1601,"RA_OF_ASC_NODE":28.0192,"ARG_OF_PERICENTER":111.3911,"MEAN_ANOMALY":248.7187,"EPHEMERIS_TYPE":0,"CLASSIFICATION_TYPE":"U","NORAD_CAT_ID":58544,"ELEMENT_SET_NO":999,"REV_AT_EPOCH":12712,"BSTAR":6.4034739e-5,"MEAN_MOTION_DOT":1.537e-5,"MEAN_MOTION_DDOT":0},{"OBJECT_NAME":"STARLINK-31057","OBJECT_ID":"2023-192Q","EPOCH":"2026-03-17T03:26:33.547776","MEAN_MOTION":15.30180701,"ECCENTRICITY":0.00011433,"INCLINATION":53.1628,"RA_OF_ASC_NODE":28.3262,"ARG_OF_PERICENTER":74.3666,"MEAN_ANOMALY":285.7461,"EPHEMERIS_TYPE":0,"CLASSIFICATION_TYPE":"U","NORAD_CAT_ID":58545,"ELEMENT_SET_NO":999,"REV_AT_EPOCH":12712,"BSTAR":8.9888634e-5,"MEAN_MOTION_DOT":2.302e-5,"MEAN_MOTION_DDOT":0},{"OBJECT_NAME":"STARLINK-31050","OBJECT_ID":"2023-192R","EPOCH":"2026-03-17T03:31:06.744576","MEAN_MOTION":15.30186074,"ECCENTRICITY":0.00011764,"INCLINATION":53.1614,"RA_OF_ASC_NODE":28.3423,"ARG_OF_PERICENTER":74.5301,"MEAN_ANOMALY":285.583,"EPHEMERIS_TYPE":0,"CLASSIFICATION_TYPE":"U","NORAD_CAT_ID":58546,"ELEMENT_SET_NO":999,"REV_AT_EPOCH":12712,"BSTAR":7.1496388e-5,"MEAN_MOTION_DOT":1.758e-5,"MEAN_MOTION_DDOT":0},{"OBJECT_NAME":"STARLINK-31063","OBJECT_ID":"2023-192S","EPOCH":"2026-03-17T03:44:45.113280","MEAN_MOTION":15.30183384,"ECCENTRICITY":0.0001234,"INCLINATION":53.1626,"RA_OF_ASC_NODE":17.7199,"ARG_OF_PERICENTER":79.9697,"MEAN_ANOMALY":280.1443,"EPHEMERIS_TYPE":0,"CLASSIFICATION_TYPE":"U","NORAD_CAT_ID":58547,"ELEMENT_SET_NO":999,"REV_AT_EPOCH":12727,"BSTAR":2.2671903e-5,"MEAN_MOTION_DOT":3.12e-6,"MEAN_MOTION_DDOT":0},{"OBJECT_NAME":"STARLINK-31016","OBJECT_ID":"2023-192T","EPOCH":"2026-03-17T04:04:22.547424","MEAN_MOTION":15.30184019,"ECCENTRICITY":0.00011712,"INCLINATION":53.1615,"RA_OF_ASC_NODE":27.7353,"ARG_OF_PERICENTER":97.1428,"MEAN_ANOMALY":262.9706,"EPHEMERIS_TYPE":0,"CLASSIFICATION_TYPE":"U","NORAD_CAT_ID":58548,"ELEMENT_SET_NO":999,"REV_AT_EPOCH":12713,"BSTAR":3.2431246e-5,"MEAN_MOTION_DOT":6.01e-6,"MEAN_MOTION_DDOT":0},{"OBJECT_NAME":"STARLINK-31053","OBJECT_ID":"2023-192U","EPOCH":"2026-03-17T03:35:40.161696","MEAN_MOTION":15.30207704,"ECCENTRICITY":3.21e-5,"INCLINATION":53.1617,"RA_OF_ASC_NODE":28.3599,"ARG_OF_PERICENTER":85.1354,"MEAN_ANOMALY":274.9684,"EPHEMERIS_TYPE":0,"CLASSIFICATION_TYPE":"U","NORAD_CAT_ID":58549,"ELEMENT_SET_NO":999,"REV_AT_EPOCH":12712,"BSTAR":-2.2534195e-5,"MEAN_MOTION_DOT":-1.026e-5,"MEAN_MOTION_DDOT":0},{"OBJECT_NAME":"STARLINK-31056","OBJECT_ID":"2023-192V","EPOCH":"2026-03-17T04:08:56.380128","MEAN_MOTION":15.30184611,"ECCENTRICITY":0.00010541,"INCLINATION":53.1617,"RA_OF_ASC_NODE":27.7996,"ARG_OF_PERICENTER":106.5972,"MEAN_ANOMALY":253.5145,"EPHEMERIS_TYPE":0,"CLASSIFICATION_TYPE":"U","NORAD_CAT_ID":58550,"ELEMENT_SET_NO":999,"REV_AT_EPOCH":12713,"BSTAR":7.1412854e-5,"MEAN_MOTION_DOT":1.756e-5,"MEAN_MOTION_DDOT":0},{"OBJECT_NAME":"STARLINK-30999","OBJECT_ID":"2023-192W","EPOCH":"2026-03-17T03:11:26.484288","MEAN_MOTION":15.30199617,"ECCENTRICITY":9.948e-5,"INCLINATION":53.1614,"RA_OF_ASC_NODE":18.2007,"ARG_OF_PERICENTER":108.0677,"MEAN_ANOMALY":252.0433,"EPHEMERIS_TYPE":0,"CLASSIFICATION_TYPE":"U","NORAD_CAT_ID":58551,"ELEMENT_SET_NO":999,"REV_AT_EPOCH":12726,"BSTAR":0.00018486264,"MEAN_MOTION_DOT":5.12e-5,"MEAN_MOTION_DDOT":0},{"OBJECT_NAME":"STARLINK-31046","OBJECT_ID":"2023-192X","EPOCH":"2026-03-17T03:46:18.751008","MEAN_MOTION":15.301877,"ECCENTRICITY":0.00011062,"INCLINATION":53.1609,"RA_OF_ASC_NODE":28.4068,"ARG_OF_PERICENTER":69.3811,"MEAN_ANOMALY":290.7308,"EPHEMERIS_TYPE":0,"CLASSIFICATION_TYPE":"U","NORAD_CAT_ID":58552,"ELEMENT_SET_NO":999,"REV_AT_EPOCH":12712,"BSTAR":2.5963022e-5,"MEAN_MOTION_DOT":4.1e-6,"MEAN_MOTION_DDOT":0}]
