STARLINK-31041          
1 58537U 23192G   26076.12022462 -.00001051  00000+0 -23377-4 0  9999
2 58537  53.1629  28.1822 0001348 102.3134 257.8018 15.30193304127122
STARLINK-31014          
1 58538U 23192H   26076.13077712  .00005986  00000+0  21408-3 0  9990
2 58538  53.1622  28.2478 0001540  85.5560 274.5617 15.30200728127123
STARLINK-31055          
1 58539U 23192J   26076.13394026  .00000855  00000+0  40988-4 0  9996
2 58539  53.1620  28.2677 0001391  80.6325 279.4833 15.30192053127127
STARLINK-31019          
1 58540U 23192K   26076.12444447  .00000503  00000+0  29119-4 0  9993
2 58540  53.1622  28.2060 0001473  96.0307 264.0862 15.30191383127126
STARLINK-31045          
1 58541U 23192L   26076.33110788  .00004590  00000+0  16715-3 0  9992
2 58541  53.1592 104.0871 0000540 143.8136 216.2901 15.30169874126066
STARLINK-31030          
1 58542U 23192M   26076.13710643  .00003176  00000+0  11937-3 0  9997
2 58542  53.1630  28.2870 0001444  85.6715 274.4451 15.30186142127127
STARLINK-31049          
1 58543U 23192N   26076.14027601  .00001676  00000+0  68721-4 0  9991
2 58543  53.1621  28.3060 0001189  83.4535 276.6601 15.30182627127127
STARLINK-31048          
1 58544U 23192P   26076.10122330  .00001537  00000+0  64035-4 0  9993
2 58544  53.1601  28.0192 0000915 111.3911 248.7187 15.30181357127122
STARLINK-31057          
1 58545U 23192Q   26076.14344384  .00002302  00000+0  89889-4 0  9998
2 58545  53.1628  28.3262 0001143  74.3666 285.7461 15.30180701127120
STARLINK-31050          
1 58546U 23192R   26076.14660584  .00001758  00000+0  71496-4 0  9991
2 58546  53.1614  28.3423 0001176  74.5301 285.5830 15.30186074127126
STARLINK-31063          
1 58547U 23192S   26076.15607770  .00000312  00000+0  22672-4 0  9998
2 58547  53.1626  17.7199 0001234  79.9697 280.1443 15.30183384127272
STARLINK-31016          
1 58548U 23192T   26076.16970541  .00000601  00000+0  32431-4 0  9994
2 58548  53.1615  27.7353 0001171  97.1428 262.9706 15.30184019127139
STARLINK-31053          
1 58549U 23192U   26076.14977039 -.00001026  00000+0 -22534-4 0  9999
2 58549  53.1617  28.3599 0000321  85.1354 274.9684 15.30207704127126
STARLINK-31056          
1 58550U 23192V   26076.17287477  .00001756  00000+0  71413-4 0  9992
2 58550  53.1617  27.7996 0001054 106.5972 253.5145 15.30184611127137
STARLINK-30999          
1 58551U 23192W   26076.13294542  .00005120  00000+0  18486-3 0  9999
2 58551  53.1614  18.2007 0000994 108.0677 252.0433 15.30199617127264
STARLINK-31046          
1 58552U 23192X   26076.15716147  .00000410  00000+0  25963-4 0  9998
2 58552  53.1609  28.4068 0001106  69.3811 290.7308 15.30187700127129
